1 44732U 19074V   22365.08634966  .00004628  00000-0  32942-3 0  9994
2 44732  53.0571  34.7357 0002210  36.1757 323.9382 15.06396853173104
1 44732U 19074V   22365.35173095  .00005597  00000-0  39427-3 0  9996
2 44732  53.0567  33.5446 0002241  36.9099 323.2043 15.06405597173143
1 44732U 19074V   22365.48442480  .00006035  00000-0  42362-3 0  9997
2 44732  53.0569  32.9491 0002257  37.0762 323.0382 15.06407961172997
1 44732U 19074V   22365.81616787  .00006105  00000-0  42832-3 0  9997
2 44732  53.0560  31.4601 0002316  31.1563 328.9563 15.06407908173048
1 44732U 19074V   22365.81616787  .00006105  00000-0  42832-3 0  9997
2 44732  53.0560  31.4601 0002316  31.1563 328.9563 15.06407908173217
1 44732U 19074V   23001.47964321 -.00001111  00000-0 -55689-4 0  9996
2 44732  53.0570  28.4818 0002352  37.4724 322.6429 15.06392124173318
1 44732U 19074V   23001.54600028 -.00001363  00000-0 -72614-4 0  9991
2 44732  53.0578  28.1836 0002307  35.4756 324.6386 15.06383561173157
1 44732U 19074V   23001.54600028 -.00001363  00000-0 -72614-4 0  9991
2 44732  53.0578  28.1836 0002307  35.4756 324.6386 15.06383561173326
1 44732U 19074V   23002.07676911 -.00002223  00000-0 -13035-3 0  9991
2 44732  53.0567  25.8018 0002341  35.5860 324.5285 15.06398065173406
1 44732U 19074V   23002.47484018 -.00000767  00000-0 -32547-4 0  9991
2 44732  53.0559  24.0143 0002372  33.9372 326.1768 15.06408246173464
1 44732U 19074V   23002.54118565 -.00000442  00000-0 -10716-4 0  9994
2 44732  53.0553  23.7166 0002371  34.7596 325.3548 15.06409026173302
1 44732U 19074V   23002.74022938 -.00001033  00000-0 -50396-4 0  9999
2 44732  53.0559  22.8226 0002387  38.0165 322.0992 15.06405041173334
1 44732U 19074V   23003.07196872  .00001663  00000-0  13053-3 0  9990
2 44732  53.0553  21.3336 0002271  36.1914 323.9228 15.06392617173557
1 44732U 19074V   23003.53639413  .00005384  00000-0  38003-3 0  9990
2 44732  53.0543  19.2489 0002387  40.5550 319.5616 15.06405757173455
1 44732U 19074V   23004.33255327  .00003183  00000-0  23245-3 0  9994
2 44732  53.0534  15.6736 0002467  38.9898 321.1268 15.06407983173742
1 44732U 19074V   23004.53159528  .00001558  00000-0  12347-3 0  9997
2 44732  53.0544  14.7813 0002543  37.0565 323.0599 15.06403509173608
1 44732U 19074V   23004.73063376  .00002127  00000-0  16164-3 0  9998
2 44732  53.0545  13.8875 0002438  39.3129 320.8036 15.06406420173630
1 44732U 19074V   23005.46043955  .00004669  00000-0  33201-3 0  9994
2 44732  53.0533  10.6114 0002262  38.3864 321.7286 15.06416169173917
1 44732U 19074V   23005.52678570  .00004450  00000-0  31735-3 0  9996
2 44732  53.0534  10.3135 0002265  39.6659 320.4495 15.06416501173757
1 44732U 19074V   23005.72582468  .00003576  00000-0  25876-3 0  9995
2 44732  53.0535   9.4201 0002416  38.0893 322.0266 15.06416088173789
1 44732U 19074V   23006.25660055  .00001374  00000-0  11112-3 0  9995
2 44732  53.0536   7.0357 0002620  47.1583 312.9625 15.06408513174030
1 44732U 19074V   23006.38930010 -.00004177  00000-0 -26171-3 0  9997
2 44732  53.0526   6.4409 0002262  25.3057 334.8043 15.06389694174053
1 44732U 19074V   23006.45565442 -.00004742  00000-0 -29976-3 0  9992
2 44732  53.0546   6.1436 0002346  34.9426 325.1716 15.06382683173893
1 44732U 19074V   23006.45565442 -.00004742  00000-0 -29976-3 0  9992
2 44732  53.0546   6.1436 0002346  34.9426 325.1716 15.06382683174063
1 44732U 19074V   23007.11912298 -.00002370  00000-0 -14024-3 0  9994
2 44732  53.0544   3.1654 0002444  36.6365 323.4791 15.06391465174163
1 44732U 19074V   23007.18546896 -.00001394  00000-0 -74660-4 0  9996
2 44732  53.0545   2.8675 0002417  36.8333 323.2822 15.06394467174001
1 44732U 19074V   23007.45085735  .00006797  00000-0  47477-3 0  9991
2 44732  53.0544   1.6758 0002451  40.9219 319.1953 15.06400633174042
1 44732U 19074V   23007.45085735  .00006797  00000-0  47477-3 0  9991
2 44732  53.0544   1.6758 0002451  40.9219 319.1953 15.06400633174211
1 44732U 19074V   23008.37971581  .00007116  00000-0  49604-3 0  9996
2 44732  53.0546 357.5055 0002419  40.9827 319.1343 15.06406167174182
1 44732U 19074V   23008.37971581  .00007116  00000-0  49604-3 0  9996
2 44732  53.0546 357.5055 0002419  40.9827 319.1343 15.06406167174351
1 44732U 19074V   23008.97683712  .00004198  00000-0  30052-3 0  9992
2 44732  53.0548 354.8247 0002392  43.4640 316.6537 15.06403453174449
1 44732U 19074V   23009.30856972  .00003696  00000-0  26690-3 0  9995
2 44732  53.0548 353.3356 0002421  43.6927 316.4253 15.06405311174322
1 44732U 19074V   23009.64030606 -.00000458  00000-0 -11805-4 0  9998
2 44732  53.0546 351.8472 0002367  42.7723 317.3450 15.06396143174371
1 44732U 19074V   23009.64030606 -.00000458  00000-0 -11805-4 0  9998
2 44732  53.0546 351.8472 0002367  42.7723 317.3450 15.06396143174540
1 44732U 19074V   23010.23743667 -.00003213  00000-0 -19698-3 0  9992
2 44732  53.0548 349.1680 0002226  33.1955 326.9173 15.06378029174639
1 44732U 19074V   23010.37012476  .00000261  00000-0  36414-4 0  9998
2 44732  53.0560 348.5706 0002267  37.4410 322.6736 15.06392159174484
1 44732U 19074V   23010.37012476  .00000261  00000-0  36414-4 0  9998
2 44732  53.0560 348.5706 0002267  37.4410 322.6736 15.06392159174653
1 44732U 19074V   23010.63551251  .00000333  00000-0  41311-4 0  9998
2 44732  53.0565 347.3794 0002211  39.2964 320.8185 15.06392902174525
1 44732U 19074V   23011.16627947  .00002997  00000-0  22001-3 0  9995
2 44732  53.0560 344.9950 0001833  26.6809 333.4274 15.06405592174770
1 44732U 19074V   23011.43166653  .00002095  00000-0  15950-3 0  9991
2 44732  53.0545 343.8045 0001789  42.7406 317.3722 15.06403725174649
1 44732U 19074V   23011.63072054 -.00004480  00000-0 -28216-3 0  9995
2 44732  53.0551 342.9113 0002186  46.6990 313.4181 15.06378327174842
1 44732U 19074V   23011.89610910 -.00003837  00000-0 -23896-3 0  9996
2 44732  53.0558 341.7202 0001848  40.2784 319.8341 15.06378736174718
1 44732U 19074V   23012.09514699  .00001036  00000-0  88441-4 0  9991
2 44732  53.0540 340.8271 0002086  46.3442 313.7719 15.06392353174913
1 44732U 19074V   23012.62592579  .00003416  00000-0  24819-3 0  9995
2 44732  53.0538 338.4444 0002161  51.9183 308.2000 15.06391067174826
1 44732U 19074V   23012.95766513  .00001468  00000-0  11747-3 0  9993
2 44732  53.0526 336.9546 0002064  55.6092 304.5092 15.06383394175040
1 44732U 19074V   23013.15670225  .00002365  00000-0  17762-3 0  9990
2 44732  53.0540 336.0587 0001655  51.9716 308.1422 15.06393393174900
1 44732U 19074V   23013.15670225  .00002365  00000-0  17762-3 0  9990
2 44732  53.0540 336.0587 0001655  51.9716 308.1422 15.06393393175079
1 44732U 19074V   23013.88652419  .00003330  00000-0  24238-3 0  9994
2 44732  53.0519 332.7874 0002047  60.2600 299.8592 15.06391644175013
1 44732U 19074V   23014.28459962  .00007418  00000-0  51622-3 0  9995
2 44732  53.0520 330.9960 0002099  75.1225 284.9996 15.06408711175248
1 44732U 19074V   23014.88172370  .00003105  00000-0  22725-3 0  9997
2 44732  53.0538 328.3174 0001532  67.8732 292.2419 15.06400029175333
1 44732U 19074V   23015.27979957  .00006445  00000-0  45100-3 0  9999
2 44732  53.0524 326.5299 0001959  79.5871 280.5338 15.06413355175227
1 44732U 19074V   23015.27979957  .00006445  00000-0  45100-3 0  9999
2 44732  53.0524 326.5299 0001959  79.5871 280.5338 15.06413355175395
1 44732U 19074V   23016.54038172  .00004380  00000-0  31267-3 0  9990
2 44732  53.0531 320.8711 0001636  89.7252 270.3924 15.06410917175419
1 44732U 19074V   23016.80578004 -.00007947  00000-0 -51544-3 0  9996
2 44732  53.0519 319.6811 0002495  79.6160 280.5110 15.06379334175453
1 44732U 19074V   23016.80578004 -.00007947  00000-0 -51544-3 0  9996
2 44732  53.0519 319.6811 0002495  79.6160 280.5110 15.06379334175622
1 44732U 19074V   23017.13752253 -.00001878  00000-0 -10735-3 0  9997
2 44732  53.0533 318.1889 0000828  47.6299 312.4760 15.06363305175675
1 44732U 19074V   23017.53561101  .00020363  00000-0  13827-2 0  9993
2 44732  53.0515 316.4024 0001508  75.2775 284.8381 15.06380568175568
1 44732U 19074V   23017.53561101  .00020363  00000-0  13827-2 0  9993
2 44732  53.0515 316.4024 0001508  75.2775 284.8381 15.06380568175737
1 44732U 19074V   23018.19907391  .00044601  00000-0  29909-2 0  9990
2 44732  53.0517 313.4240 0001524  77.0669 283.0490 15.06441595175837
1 44732U 19074V   23018.53080582  .00031554  00000-0  21256-2 0  9992
2 44732  53.0527 311.9350 0001733  73.2653 286.8526 15.06437643175881
1 44732U 19074V   23019.06157214  .00028045  00000-0  18924-2 0  9997
2 44732  53.0519 309.5520 0001337  78.7911 281.3228 15.06435006175960
1 44732U 19074V   23019.19426289  .00022059  00000-0  14937-2 0  9991
2 44732  53.0535 308.9553 0001506  87.9369 272.1793 15.06436882175816
1 44732U 19074V   23019.79139223  .00019330  00000-0  13130-2 0  9998
2 44732  53.0530 306.2749 0001192  96.5262 263.5862 15.06401656176079
1 44732U 19074V   23020.05678228  .00022545  00000-0  15279-2 0  9990
2 44732  53.0537 305.0833 0000989 105.2362 254.8736 15.06391984176119
1 44732U 19074V   23021.05199113  .00010067  00000-0  69376-3 0  9996
2 44732  53.0519 300.6178 0001182  95.3208 264.7916 15.06399539176266
1 44732U 19074V   23021.18468360  .00016917  00000-0  11517-2 0  9996
2 44732  53.0528 300.0204 0001327  91.3706 268.7435 15.06406221176289
1 44732U 19074V   23022.11353671  .00009757  00000-0  67276-3 0  9996
2 44732  53.0527 295.8536 0001706  82.6420 277.4763 15.06414656176422
1 44732U 19074V   23022.44526519 -.00001048  00000-0 -51509-4 0  9995
2 44732  53.0517 294.3594 0000543 136.1643 223.9389 15.06400916176478
1 44732U 19074V   23022.77700924 -.00002446  00000-0 -14538-3 0  9998
2 44732  53.0525 292.8714 0001501 100.5695 259.5464 15.06391810176528
1 44732U 19074V   23023.10873980  .00000740  00000-0  68587-4 0  9996
2 44732  53.0523 291.3823 0001258 103.9610 256.1519 15.06400213176571
1 44732U 19074V   23024.50202686  .00001495  00000-0  11923-3 0  9999
2 44732  53.0525 285.1257 0001577 134.6805 225.4313 15.06396475176784
